KUIPER-00016            
1 63732U 25088J   25216.91668981 -.00007494  00000+0 -54888-3 0  9999
2 63732  51.8892 351.4706 0011293  72.5019 232.7153 15.01707459  5807
KUIPER-00018            
1 63733U 25088K   25216.91668981 -.00023440  00000+0 -10222-2 0  9992
2 63733  51.8777 345.9265 0007435  83.3726 150.0747 15.21285599  5423
KUIPER-00019            
1 63734U 25088L   25216.91668981 -.00786107  00000+0 -30687-1 0  9995
2 63734  51.8732 345.1203 0005880  94.5021 163.0661 15.27861561  5393
KUIPER-00020            
1 63735U 25088M   25216.91668981 -.01031820  00000+0 -55698-1 0  9991
2 63735  51.8837 346.8621 0006487  93.2779 353.3335 15.17267172  5773
KUIPER-00021            
1 63736U 25088N   25216.91668981 -.01169164  00000+0 -66467-1 0  9991
2 63736  51.8729 347.4943 0005602  71.5113 109.6765 15.15359995  5713
KUIPER-00023            
1 63737U 25088P   25216.91668981  .00012715  00000+0  73248-3 0  9995
2 63737  51.8797 348.2756 0009860  91.0252  77.5906 15.12699866  4801
KUIPER-00024            
1 63738U 25088Q   25216.64353776  .00018262  00000+0  47832-3 0  9992
2 63738  51.8719 345.3328 0000972 106.0935 254.0159 15.38753096 15740
KUIPER-00025            
1 63739U 25088R   25216.91668981 -.01273048  00000+0 -62517-1 0  9993
2 63739  51.8784 345.9966 0008617  69.2994  75.5744 15.20630455  4575
